QUETZAL-1               
1 45598U 98067RL  20352.75388964  .00013450  00000-0  21278-3 0  9999
2 45598  51.6397 156.6725 0002095  57.2726 302.8466 15.53771721 36255
RED-EYE 2 (MERLOT)      
1 45800U 98067RM  20352.74620222  .00003750  00000-0  70661-4 0  9993
2 45800  51.6407 158.8616 0000907  18.3889 341.7133 15.51198077 28466
RED-EYE 3 (CABERNET)    
1 45809U 98067RN  20352.74672143  .00003732  00000-0  70379-4 0  9997
2 45809  51.6407 158.8652 0000950 354.9542   5.1437 15.51195047 27447
DEMI                    
1 45916U 98067RP  20352.72505454  .00009187  00000-0  15150-3 0  9999
2 45916  51.6404 157.9780 0002054 251.6932 108.3835 15.53064132 24445
TECHEDSAT 10            
1 45917U 98067RQ  20352.73587125  .00084557  00000-0  87468-3 0  9991
2 45917  51.6362 153.5403 0005644 268.9574  91.0774 15.63984145 24451
PROGRESS-MS 15          
1 45937U 20050A   20352.56042652  .00000755  00000-0  21705-4 0  9993
2 45937  51.6439 161.1351 0001568 135.2207 333.8407 15.49192701260449
CYGNUS NG-14            
1 46530U 20069A   20352.56042652  .00000755  00000-0  21705-4 0  9993
2 46530  51.6439 161.1351 0001568 135.2207 333.8407 15.49192701 11702
SOYUZ-MS 17             
1 46613U 20072A   20352.56042652  .00000755  00000-0  21705-4 0  9999
2 46613  51.6439 161.1351 0001568 135.2207 333.8407 15.49192701  9970
CREW DRAGON 1           
1 46920U 20084A   20352.56042652  .00000755  00000-0  21705-4 0  9993
2 46920  51.6439 161.1351 0001568 135.2207 333.8407 15.49192701  4897
SPOC                    
1 46921U 98067RR  20352.88985760  .00008514  00000-0  15162-3 0  9991
2 46921  51.6415 159.0728 0002708 123.8800 236.2447 15.50998605  6649
BOBCAT-1                
1 46922U 98067RS  20352.88677462  .00011815  00000-0  20528-3 0  9999
2 46922  51.6415 159.0527 0002415 131.4836 228.6361 15.51275092  6601
NEUTRON-1               
1 46923U 98067RT  20352.76335477  .00008098  00000-0  14509-3 0  9995
2 46923  51.6415 159.7274 0002616 135.7677 224.3522 15.50900685  6650
1998-067RU              
1 46924U 98067RU  20353.46250957  .00016934  00000-0  28599-3 0  9995
2 46924  51.6411 156.1470 0002497 173.7149 186.3873 15.51735264  6734
LEMUR-2-BAXTER-OLIVER   
1 46925U 98067RV  20352.75114700  .00014621  00000-0  24714-3 0  9998
2 46925  51.6416 159.6473 0002519 174.0932 186.0087 15.51838266  6594
LEMUR-2-DJARA           
1 46926U 98067RW  20352.75359813  .00019600  00000-0  32950-3 0  9998
2 46926  51.6416 159.6633 0001882 155.0032 205.1050 15.51752861  6617
DESCENT                 
1 46927U 98067RX  20352.95839493  .00008708  00000-0  15566-3 0  9999
2 46927  51.6413 158.7795 0002688 155.2794 204.8324 15.50857583  6599
DRAGON CRS-21           
1 47233U 20093A   20352.56042652  .00000755  00000-0  21705-4 0  9991
2 47233  51.6439 161.1351 0001568 135.2207 333.8407 15.49192701  1690
